NORAD_CAT_ID,OBJECT_NAME,OBJECT_TYPE,EPOCH,MEAN_MOTION,ECCENTRICITY,INCLINATION,RA_OF_ASC_NODE,ARG_OF_PERICENTER,MEAN_ANOMALY,BSTAR,MEAN_MOTION_DOT,MEAN_MOTION_DDOT,TLE_LINE0,TLE_LINE1,TLE_LINE2,SEMIMAJOR_AXIS,PERIOD,APOGEE,PERIGEE,DECAYED
50204.0,STARLINK-3254,PAYLOAD,2024-05-28 14:01:03,15.08839395,0.0001013,53.2172,277.568,89.6889,270.4219,2.5638e-06,-2.47e-06,0.0,0 STARLINK-3254,1 50204U 21125BA  24149.58406848 -.00000247  00000-0  25638-5 0  9998,2 50204  53.2172 277.5680 0001013  89.6889 270.4219 15.08839395138649,6917.882,95.438,540.448,539.046,0.0
50204.0,STARLINK-3254,PAYLOAD,2024-05-29 13:51:50,15.08837018,9.96e-05,53.2177,273.1086,86.9722,273.1384,7.7702e-05,9.49e-06,0.0,0 STARLINK-3254,1 50204U 21125BA  24150.57767316  .00000949  00000-0  77702-4 0  9995,2 50204  53.2177 273.1086 0000996  86.9722 273.1384 15.08837018138790,6917.89,95.438,540.444,539.065,0.0
50204.0,STARLINK-3254,PAYLOAD,2024-05-30 12:07:14,15.08841885,9.34e-05,53.2172,268.9472,76.3034,283.8062,0.00014617,2.039e-05,0.0,0 STARLINK-3254,1 50204U 21125BA  24151.50503083  .00002039  00000-0  14617-3 0  9995,2 50204  53.2172 268.9472 0000934  76.3034 283.8062 15.08841885135804,6917.875,95.437,540.386,539.093,0.0
50204.0,STARLINK-3254,PAYLOAD,2024-05-30 13:42:37,15.0884315,9.44e-05,53.217,268.6495,77.7662,282.3436,0.00015712,2.214e-05,0.0,0 STARLINK-3254,1 50204U 21125BA  24151.57126991  .00002214  00000-0  15712-3 0  9993,2 50204  53.2170 268.6495 0000944  77.7662 282.3436 15.08843150138941,6917.871,95.437,540.389,539.083,0.0
50204.0,STARLINK-3254,PAYLOAD,2024-05-30 15:18:00,15.08845927,9.67e-05,53.2171,268.3514,82.5608,277.5494,0.00018055,2.587e-05,0.0,0 STARLINK-3254,1 50204U 21125BA  24151.63750768  .00002587  00000-0  18055-3 0  9991,2 50204  53.2171 268.3514 0000967  82.5608 277.5494 15.08845927138955,6917.862,95.437,540.396,539.058,0.0
50204.0,STARLINK-3254,PAYLOAD,2024-05-31 11:58:01,15.08849175,0.0001028,53.2171,264.4849,80.6074,279.5035,0.0001745,2.491e-05,0.0,0 STARLINK-3254,1 50204U 21125BA  24152.49862416  .00002491  00000-0  17450-3 0  9992,2 50204  53.2171 264.4849 0001028  80.6074 279.5035 15.08849175139085,6917.852,95.437,540.429,539.006,0.0
50204.0,STARLINK-3254,PAYLOAD,2024-06-01 13:24:12,15.08825691,0.0001107,53.2171,259.7274,87.351,272.7608,0.00019418,2.803e-05,0.0,0 STARLINK-3254,1 50204U 21125BA  24153.55847792  .00002803  00000-0  19418-3 0  9993,2 50204  53.2171 259.7274 0001107  87.3510 272.7608 15.08825691136110,6917.924,95.438,540.555,539.023,0.0
50204.0,STARLINK-3254,PAYLOAD,2024-06-02 00:31:53,15.08845147,0.0001082,53.2179,257.6459,83.8088,276.3027,3.6035e-05,2.86e-06,0.0,0 STARLINK-3254,1 50204U 21125BA  24154.02214645  .00000286  00000-0  36035-4 0  9999,2 50204  53.2179 257.6459 0001082  83.8088 276.3027 15.08845147136183,6917.865,95.437,540.478,538.981,0.0
50204.0,STARLINK-3254,PAYLOAD,2024-06-02 13:14:58,15.08841411,0.0001285,53.2185,255.2671,94.358,265.7559,2.4901e-05,1.08e-06,0.0,0 STARLINK-3254,1 50204U 21125BA  24154.55206964  .00000108  00000-0  24901-4 0  9994,2 50204  53.2185 255.2671 0001285  94.3580 265.7559 15.08841411139397,6917.876,95.437,540.63,538.852,0.0
50204.0,STARLINK-3254,PAYLOAD,2024-06-03 13:05:45,15.08839077,0.0001224,53.2177,250.8075,94.6015,265.5117,0.00014565,2.031e-05,0.0,0 STARLINK-3254,1 50204U 21125BA  24155.54567042  .00002031  00000-0  14565-3 0  9992,2 50204  53.2177 250.8075 0001224  94.6015 265.5117 15.08839077139546,6917.883,95.438,540.595,538.901,0.0
50204.0,STARLINK-3254,PAYLOAD,2024-06-03 16:16:32,15.08840294,0.0001267,53.2178,250.2129,94.6604,265.4533,0.0001513,2.121e-05,0.0,0 STARLINK-3254,1 50204U 21125BA  24155.67814996  .00002121  00000-0  15130-3 0  9998,2 50204  53.2178 250.2129 0001267  94.6604 265.4533 15.08840294136431,6917.879,95.438,540.621,538.868,0.0
50204.0,STARLINK-3254,PAYLOAD,2024-06-04 12:56:32,15.0884234,0.0001091,53.216,246.3475,89.2797,270.832,0.00014607,2.038e-05,0.0,0 STARLINK-3254,1 50204U 21125BA  24156.53926950  .00002038  00000-0  14607-3 0  9993,2 50204  53.2160 246.3475 0001091  89.2797 270.8320 15.08842340139699,6917.873,95.437,540.493,538.983,0.0
50204.0,STARLINK-3254,PAYLOAD,2024-06-04 22:28:50,15.0885663,0.0001084,53.2156,244.5623,88.6286,271.483,0.00021583,3.15e-05,0.0,0 STARLINK-3254,1 50204U 21125BA  24156.93669821  .00003150  00000-0  21583-3 0  9995,2 50204  53.2156 244.5623 0001084  88.6286 271.4830 15.08856630139754,6917.83,95.437,540.444,538.945,0.0
50204.0,STARLINK-3254,PAYLOAD,2024-06-05 11:11:58,15.08821063,0.0001162,53.2162,242.1825,89.477,270.6355,-0.00010414,-1.944e-05,0.0,0 STARLINK-3254,1 50204U 21125BA  24157.46664921 -.00001944  00000-0 -10414-3 0  9992,2 50204  53.2162 242.1825 0001162  89.4770 270.6355 15.08821063136700,6917.938,95.439,540.607,538.999,0.0
50204.0,STARLINK-3254,PAYLOAD,2024-06-05 22:19:39,15.08837102,9.76e-05,53.2161,240.1005,84.5822,275.5282,3.5827e-05,2.82e-06,0.0,0 STARLINK-3254,1 50204U 21125BA  24157.93031719  .00000282  00000-0  35827-4 0  9995,2 50204  53.2161 240.1005 0000976  84.5822 275.5282 15.08837102139902,6917.889,95.438,540.429,539.079,0.0
50204.0,STARLINK-3254,PAYLOAD,2024-06-06 11:02:44,15.08834404,0.0001227,53.218,237.7244,91.8402,268.2731,4.362e-05,4.06e-06,0.0,0 STARLINK-3254,1 50204U 21125BA  24158.46024212  .00000406  00000-0  43620-4 0  9992,2 50204  53.2180 237.7244 0001227  91.8402 268.2731 15.08834404139983,6917.897,95.438,540.611,538.914,0.0
50204.0,STARLINK-3254,PAYLOAD,2024-06-07 09:18:08,15.08834887,0.0001583,53.2161,233.5593,82.0075,278.1097,0.0002862,4.269e-05,0.0,0 STARLINK-3254,1 50204U 21125BA  24159.38760234  .00004269  00000-0  28620-3 0  9998,2 50204  53.2161 233.5593 0001583  82.0075 278.1097 15.08834887136994,6917.896,95.438,540.856,538.666,0.0
50204.0,STARLINK-3254,PAYLOAD,2024-06-07 14:04:18,15.08836541,0.0001459,53.2167,232.6675,85.8364,274.2795,0.00030864,4.627e-05,0.0,0 STARLINK-3254,1 50204U 21125BA  24159.58632260  .00004627  00000-0  30864-3 0  9998,2 50204  53.2167 232.6675 0001459  85.8364 274.2795 15.08836541140159,6917.891,95.438,540.765,538.747,0.0
50204.0,STARLINK-3254,PAYLOAD,2024-06-07 22:01:13,15.08848286,0.0001347,53.2158,231.1808,90.3903,269.7243,0.00034246,5.168e-05,0.0,0 STARLINK-3254,1 50204U 21125BA  24159.91751594  .00005168  00000-0  34246-3 0  9996,2 50204  53.2158 231.1808 0001347  90.3903 269.7243 15.08848286140209,6917.855,95.437,540.652,538.788,0.0
50204.0,STARLINK-3254,PAYLOAD,2024-06-08 04:22:45,15.08848129,0.0001299,53.2149,229.9957,85.5913,274.5227,0.00023196,3.406e-05,0.0,0 STARLINK-3254,1 50204U 21125BA  24160.18247504  .00003406  00000-0  23196-3 0  9993,2 50204  53.2149 229.9957 0001299  85.5913 274.5227 15.08848129137110,6917.856,95.437,540.619,538.822,0.0
50204.0,STARLINK-3254,PAYLOAD,2024-06-08 12:19:41,15.08850775,0.0001315,53.2149,228.5052,93.6249,266.4894,0.000166,2.356e-05,0.0,0 STARLINK-3254,1 50204U 21125BA  24160.51367275  .00002356  00000-0  16600-3 0  9993,2 50204  53.2149 228.5052 0001315  93.6249 266.4894 15.08850775140295,6917.847,95.437,540.622,538.803,0.0
50204.0,STARLINK-3254,PAYLOAD,2024-06-08 21:51:59,15.08862413,0.0001462,53.215,226.7204,75.3787,284.7367,0.00037548,5.696e-05,0.0,0 STARLINK-3254,1 50204U 21125BA  24160.91110547  .00005696  00000-0  37548-3 0  9999,2 50204  53.2150 226.7204 0001462  75.3787 284.7367 15.08862413140350,6917.812,95.436,540.688,538.665,0.0
50204.0,STARLINK-3254,PAYLOAD,2024-06-09 10:35:05,15.08830199,0.0001365,53.2148,224.3418,79.4767,280.6379,-0.00016251,-2.873e-05,0.0,0 STARLINK-3254,1 50204U 21125BA  24161.44103933 -.00002873  00000-0 -16251-3 0  9993,2 50204  53.2148 224.3418 0001365  79.4767 280.6379 15.08830199137308,6917.91,95.438,540.72,538.831,0.0
50204.0,STARLINK-3254,PAYLOAD,2024-06-09 21:42:47,15.08838131,0.0001433,53.2159,222.2555,102.9422,257.173,4.3761e-05,4.09e-06,0.0,0 STARLINK-3254,1 50204U 21125BA  24161.90471715  .00000409  00000-0  43761-4 0  9998,2 50204  53.2159 222.2555 0001433 102.9422 257.1730 15.08838131140505,6917.886,95.438,540.742,538.76,0.0
50204.0,STARLINK-3254,PAYLOAD,2024-06-10 10:25:53,15.08839625,0.000142,53.2145,219.8816,78.2534,281.8618,0.00046577,7.132e-05,0.0,0 STARLINK-3254,1 50204U 21125BA  24162.43464152  .00007132  00000-0  46577-3 0  9991,2 50204  53.2145 219.8816 0001420  78.2534 281.8618 15.08839625137455,6917.882,95.438,540.729,538.764,0.0
50204.0,STARLINK-3254,PAYLOAD,2024-06-11 10:16:40,15.08847173,0.0001503,53.2157,215.4203,78.418,281.6981,0.00039862,6.063e-05,0.0,0 STARLINK-3254,1 50204U 21125BA  24163.42824099  .00006063  00000-0  39862-3 0  9992,2 50204  53.2157 215.4203 0001503  78.4180 281.6981 15.08847173140734,6917.858,95.437,540.763,538.684,0.0
50204.0,STARLINK-3254,PAYLOAD,2024-06-12 06:56:40,15.08839002,0.0001407,53.215,211.5548,76.3282,283.7867,5.9466e-05,6.59e-06,0.0,0 STARLINK-3254,1 50204U 21125BA  24164.28936255  .00000659  00000-0  59466-4 0  9993,2 50204  53.2150 211.5548 0001407  76.3282 283.7867 15.08839002137733,6917.883,95.438,540.722,538.775,0.0
50204.0,STARLINK-3254,PAYLOAD,2024-06-12 10:07:27,15.08835883,0.0001383,53.2148,210.9596,77.1744,282.9402,1.6926e-05,-1.9e-07,0.0,0 STARLINK-3254,1 50204U 21125BA  24164.42184427 -.00000019  00000-0  16926-4 0  9990,2 50204  53.2148 210.9596 0001383  77.1744 282.9402 15.08835883140880,6917.893,95.438,540.715,538.801,0.0
50204.0,STARLINK-3254,PAYLOAD,2024-06-13 09:58:14,15.08840307,0.000125,53.2151,206.4988,75.0884,285.0246,9.75e-05,1.264e-05,0.0,0 STARLINK-3254,1 50204U 21125BA  24165.41544468  .00001264  00000-0  97500-4 0  9994,2 50204  53.2151 206.4988 0001250  75.0884 285.0246 15.08840307137900,6917.879,95.438,540.609,538.88,0.0
50204.0,STARLINK-3254,PAYLOAD,2024-06-13 19:30:33,15.08840906,0.0001237,53.2147,204.714,72.0127,288.1,0.00010612,1.401e-05,0.0,0 STARLINK-3254,1 50204U 21125BA  24165.81288367  .00001401  00000-0  10612-3 0  9992,2 50204  53.2147 204.7140 0001237  72.0127 288.1000 15.08840906141090,6917.878,95.437,540.598,538.887,0.0
